IRIDIUM 119             
1 42959U 17061E   25354.72859633  .00000225  00000+0  73158-4 0  9992
2 42959  86.3971  99.8770 0001864  99.2753 260.8654 14.34218786429234
IRIDIUM 107             
1 42960U 17061F   25354.81739259  .00000186  00000+0  59469-4 0  9990
2 42960  86.3971  99.8602 0002175 107.3609 252.7825 14.34217878429250
IRIDIUM 132             
1 42961U 17061G   25354.75396732  .00000187  00000+0  59607-4 0  9994
2 42961  86.3971  99.8674 0002117 100.1852 259.9583 14.34217703429243
IRIDIUM 136             
1 42962U 17061H   25354.29729909  .00000178  00000+0  56413-4 0  9992
2 42962  86.3971 100.0641 0001979  99.8183 260.3236 14.34218704429196
IRIDIUM 139             
1 42963U 17061J   25354.86179120  .00000168  00000+0  52839-4 0  9997
2 42963  86.3974  99.8873 0002154 100.2632 259.8807 14.34218469429289
IRIDIUM 125             
1 42964U 17061K   25354.77932795  .00000229  00000+0  74784-4 0  9994
2 42964  86.3974  99.9795 0001889 112.5693 247.5703 14.34215023429283
IRIDIUM 135             
1 43070U 17083A   25354.82323153  .00000214  00000+0  69270-4 0  9993
2 43070  86.3960  36.5644 0002171  93.0920 267.0525 14.34217048418587
IRIDIUM 138             
1 43071U 17083B   25354.91836883 -.00000040  00000+0 -21496-4 0  9990
2 43071  86.3971  36.1921 0001672  97.0953 263.0433 14.34217764418588
